STARLINK-36835
1 67863U 26034P   26090.83335647 -.01872720  00000+0 -50198-1 0  9993
2 67863  53.1592 101.6644 0001524  99.2122 203.9844 15.40772270  6007
